H1 CPF 01  gfz 2022 11 30 01  8341 terrasarx 
H2 0702601  6201 31698    2022 11 30 00 59 42 2022 12 05 00 00 42   120 1 1  0 0 0
H9
10 0 59913  86382.000000  0     841011.904  -2767411.750  -6259007.174
10 0 59914    102.000000  0     761772.577  -3582196.491  -5841739.722
10 0 59914    222.000000  0     655617.679  -4333213.090  -5322404.591
10 0 59914    342.000000  0     525612.172  -5006916.176  -4709986.868
10 0 59914    462.000000  0     375463.487  -5591130.243  -4015110.995
10 0 59914    582.000000  0     209433.190  -6075278.726  -3249866.266
10 0 59914    702.000000  0      32234.575  -6450586.266  -2427603.780
10 0 59914    822.000000  0    -151081.683  -6710251.000  -1562708.110
10 0 59914    942.000000  0    -335251.618  -6849581.005   -670345.042
10 0 59914   1062.000000  0    -514928.698  -6866089.547    233808.417
10 0 59914   1182.000000  0    -684817.963  -6759547.085   1133845.562
10 0 59914   1302.000000  0    -839810.371  -6531989.188   2013917.974
10 0 59914   1422.000000  0    -975113.703  -6187678.156   2858524.223
10 0 59914   1542.000000  0   -1086375.814  -5733019.138   3652792.102
10 0 59914   1662.000000  0   -1169797.173  -5176432.365   4382746.578
10 0 59914   1782.000000  0   -1222231.475  -4528187.639   5035557.564
10 0 59914   1902.000000  0   -1241270.319  -3800206.117   5599765.760
10 0 59914   2022.000000  0   -1225311.264  -3005831.034   6065482.678
10 0 59914   2142.000000  0   -1173606.457  -2159573.530   6424558.037
10 0 59914   2262.000000  0   -1086291.499  -1276843.064   6670714.928
10 0 59914   2382.000000  0    -964395.533   -373664.530   6799654.472
10 0 59914   2502.000000  0    -809832.148    533613.940   6809126.110
10 0 59914   2622.000000  0    -625369.574   1428616.321   6698964.740
10 0 59914   2742.000000  0    -414580.790   2295233.912   6471093.516
10 0 59914   2862.000000  0    -181774.877   3117914.974   6129492.193
10 0 59914   2982.000000  0      68088.884   3881944.633   5680132.052
10 0 59914   3102.000000  0     329502.859   4573711.344   5130876.906
10 0 59914   3222.000000  0     596528.163   5180954.857   4491352.125
10 0 59914   3342.000000  0     862924.097   5692991.854   3772779.869
10 0 59914   3462.000000  0    1122285.880   6100910.518   2987786.870
10 0 59914   3582.000000  0    1368192.912   6397740.791   2150185.399
10 0 59914   3702.000000  0    1594358.370   6578581.185   1274723.267
10 0 59914   3822.000000  0    1794778.447   6640685.789    376818.643
10 0 59914   3942.000000  0    1963877.726   6583507.157   -527719.556
10 0 59914   4062.000000  0    2096646.069   6408695.398  -1422977.992
10 0 59914   4182.000000  0    2188764.384   6120053.965  -2293226.439
10 0 59914   4302.000000  0    2236716.127   5723453.064  -3123200.917
10 0 59914   4422.000000  0    2237881.649   5226702.481  -3898376.443
10 0 59914   4542.000000  0    2190612.879   4639386.649  -4605222.651
10 0 59914   4662.000000  0    2094286.487   3972668.307  -5231436.494
10 0 59914   4782.000000  0    1949335.607   3239066.818  -5766149.084
10 0 59914   4902.000000  0    1757259.563   2452216.007  -6200105.265
10 0 59914   5022.000000  0    1520611.241   1626606.217  -6525812.362
10 0 59914   5142.000000  0    1242964.163    777317.631  -6737657.878
10 0 59914   5262.000000  0     928858.757    -80252.282  -6831997.242
10 0 59914   5382.000000  0     583728.052   -930663.251  -6807209.397
10 0 59914   5502.000000  0     213805.132  -1758703.635  -6663719.965
10 0 59914   5622.000000  0    -173985.899  -2549654.223  -6403994.569
10 0 59914   5742.000000  0    -572155.841  -3289544.819  -6032503.163
10 0 59914   5862.000000  0    -972790.806  -3965398.849  -5555650.455
10 0 59914   5982.000000  0   -1367704.376  -4565460.892  -4981676.427
10 0 59914   6102.000000  0   -1748600.576  -5079405.977  -4320525.968
10 0 59914   6222.000000  0   -2107244.654  -5498525.147  -3583687.008
10 0 59914   6342.000000  0   -2435637.804  -5815882.698  -2783999.314
10 0 59914   6462.000000  0   -2726192.078  -6026441.879  -1935436.684
10 0 59914   6582.000000  0   -2971901.797  -6127156.187  -1052864.978
10 0 59914   6702.000000  0   -3166507.105  -6117022.384   -151779.069
10 0 59914   6822.000000  0   -3304644.523  -5997091.933    751975.408
10 0 59914   6942.000000  0   -3381980.662  -5770441.079   1642488.727
10 0 59914   7062.000000  0   -3395325.730  -5442099.674   2504076.580
10 0 59914   7182.000000  0   -3342723.359  -5018940.135   3321564.854
10 0 59914   7302.000000  0   -3223514.771  -4509530.722   4080563.639
10 0 59914   7422.000000  0   -3038375.933  -3923956.416   4767725.158
10 0 59914   7542.000000  0   -2789327.254  -3273611.660   5370979.854
10 0 59914   7662.000000  0   -2479715.150  -2570971.204   5879746.720
10 0 59914   7782.000000  0   -2114166.436  -1829345.204   6285114.514
10 0 59914   7902.000000  0   -1698517.105  -1062623.351   6579993.705
10 0 59914   8022.000000  0   -1239715.631   -285010.431   6759234.810
10 0 59914   8142.000000  0    -745705.400    489237.601   6819710.167
10 0 59914   8262.000000  0    -225287.631   1246073.462   6760365.652
10 0 59914   8382.000000  0     312035.333   1971913.154   6582238.394
10 0 59914   8502.000000  0     856233.336   2653879.760   6288439.531
10 0 59914   8622.000000  0    1396934.804   3280031.713   5884102.888
10 0 59914   8742.000000  0    1923623.356   3839574.096   5376301.021
10 0 59914   8862.000000  0    2425842.225   4323049.362   4773927.950
10 0 59914   8982.000000  0    2893403.513   4722503.174   4087548.424
10 0 59914   9102.000000  0    3316595.485   5031620.514   3329216.555
10 0 59914   9222.000000  0    3686386.387   5245833.486   2512268.457
10 0 59914   9342.000000  0    3994620.932   5362395.035   1651083.839
10 0 59914   9462.000000  0    4234198.300   5380412.582    760828.463
10 0 59914   9582.000000  0    4399232.717   5300848.578   -142819.892
10 0 59914   9702.000000  0    4485189.550   5126479.220  -1043957.227
10 0 59914   9822.000000  0    4488995.451   4861817.344  -1926740.706
10 0 59914   9942.000000  0    4409118.614   4513001.529  -2775674.556
10 0 59914  10062.000000  0    4245617.494   4087654.000  -3575887.877
10 0 59914  10182.000000  0    4000156.046   3594710.348  -4313397.736
10 0 59914  10302.000000  0    3675987.676   3044226.880  -4975351.289
10 0 59914  10422.000000  0    3277908.338   2447170.818  -5550244.964
10 0 59914  10542.000000  0    2812179.486   1815198.167  -6028116.343
10 0 59914  10662.000000  0    2286424.011   1160423.996  -6400706.163
10 0 59914  10782.000000  0    1709497.330    495190.790  -6661588.701
10 0 59914  10902.000000  0    1091338.101   -168160.513  -6806271.711
10 0 59914  11022.000000  0     442797.905   -817515.214  -6832267.139
10 0 59914  11142.000000  0    -224546.689  -1441201.164  -6739127.475
10 0 59914  11262.000000  0    -898594.986  -2028192.224  -6528452.139
10 0 59914  11382.000000  0   -1566936.298  -2568298.972  -6203864.348
10 0 59914  11502.000000  0   -2217073.295  -3052343.621  -5770955.002
10 0 59914  11622.000000  0   -2836650.829  -3472315.474  -5237196.529
10 0 59914  11742.000000  0   -3413689.351  -3821506.837  -4611826.472
10 0 59914  11862.000000  0   -3936817.952  -4094625.207  -3905698.195
10 0 59914  11982.000000  0   -4395501.064  -4287878.893  -3131102.094
10 0 59914  12102.000000  0   -4780255.481  -4399034.805  -2301558.704
10 0 59914  12222.000000  0   -5082851.745  -4427445.706  -1431585.799
10 0 59914  12342.000000  0   -5296494.830  -4374045.971   -536443.943
10 0 59914  12462.000000  0   -5415979.386  -4241315.619    368134.924
10 0 59914  12582.000000  0   -5437815.150  -4033213.058   1266231.316
10 0 59914  12702.000000  0   -5360317.606  -3755076.736   2142028.209
10 0 59914  12822.000000  0   -5183661.622  -3413498.095   2980098.829
10 0 59914  12942.000000  0   -4909897.314  -3016170.416   3765685.956
10 0 59914  13062.000000  0   -4542928.040  -2571717.113   4484967.972
10 0 59914  13182.000000  0   -4088450.012  -2089503.175   5125304.758
10 0 59914  13302.000000  0   -3553857.666  -1579436.513   5675457.990
10 0 59914  13422.000000  0   -2948117.692  -1051763.662   6125785.728
10 0 59914  13542.000000  0   -2281612.052   -516862.243   6468408.097
10 0 59914  13662.000000  0   -1565953.436     14964.814   6697338.775
10 0 59914  13782.000000  0    -813779.213    533686.489   6808582.073
10 0 59914  13902.000000  0     -38527.702   1029731.309   6800198.265
10 0 59914  14022.000000  0     745801.440   1494163.347   6672335.352
10 0 59914  14142.000000  0    1524899.363   1918843.376   6427226.654
10 0 59914  14262.000000  0    2284408.213   2296571.507   6069153.542
10 0 59914  14382.000000  0    3010185.320   2621209.867   5604375.951
10 0 59914  14502.000000  0    3688569.088   2887784.371   5041029.522
10 0 59914  14622.000000  0    4306639.626   3092563.093   4388988.255
10 0 59914  14742.000000  0    4852468.925   3233109.475   3659697.327
10 0 59914  14862.000000  0    5315360.630   3308310.346   2865976.024
10 0 59914  14982.000000  0    5686066.934   3318374.585   2021790.191
10 0 59914  15102.000000  0    5956979.163   3264805.721   1142004.231
10 0 59914  15222.000000  0    6122289.106   3150347.627    242112.982
10 0 59914  15342.000000  0    6178114.211   2978903.427   -662040.029
10 0 59914  15462.000000  0    6122584.033   2755429.612  -1554550.370
10 0 59914  15582.000000  0    5955885.714   2485810.181  -2419739.637
10 0 59914  15702.000000  0    5680269.192   2176714.283  -3242437.515
10 0 59914  15822.000000  0    5300010.878   1835438.546  -4008251.701
10 0 59914  15942.000000  0    4821337.802   1469739.472  -4703820.771
10 0 59914  16062.000000  0    4252313.077   1087660.461  -5317043.293
10 0 59914  16182.000000  0    3602689.675    697358.835  -5837280.093
10 0 59914  16302.000000  0    2883734.893    306935.560  -6255529.435
10 0 59914  16422.000000  0    2108028.479    -75728.621  -6564571.361
99
